STARLINK-4580           
1 53579U 22101BE  23363.40159658 -.00000852  00000+0 -35412-4 0  9995
2 53579  53.2182  50.8370 0001747  72.6567 287.4616 15.08841323 75480
STARLINK-4691           
1 53588U 22104A   23363.06771086  .00001287  00000+0  98953-4 0  9995
2 53588  53.2154 242.9897 0001503  88.0262 272.0902 15.08846612 75079
STARLINK-4673           
1 53589U 22104B   23363.11552934  .00000868  00000+0  72598-4 0  9992
2 53589  53.2148 242.5779 0001602 104.8281 255.2888 15.08841667 74931
STARLINK-4689           
1 53590U 22104C   23363.79266496 -.00001069  00000+0 -49106-4 0  9998
2 53590  53.2183 239.6894 0001187  95.7486 264.3641 15.08840403 74014
STARLINK-4674           
1 53591U 22104D   23363.78898674  .00002731  00000+0  18963-3 0  9998
2 53591  53.2150 239.6729 0001322  97.6931 262.4212 15.08834497 74012
STARLINK-4672           
1 53592U 22104E   23363.05761747  .00001113  00000+0  87988-4 0  9996
2 53592  53.2153 242.9296 0001429  90.3061 269.8095 15.08841431 74920
STARLINK-4671           
1 53593U 22104F   23363.05297487 -.00001051  00000+0 -47932-4 0  9990
2 53593  53.2161 242.8972 0001375  94.7960 265.3190 15.08847472 74924
STARLINK-4681           
1 53594U 22104G   23363.10815805  .00000455  00000+0  46660-4 0  9999
2 53594  53.2149 242.5319 0001233  90.2317 269.8816 15.08841502 75072
STARLINK-4684           
1 53595U 22104H   23363.11184341  .00002103  00000+0  15020-3 0  9992
2 53595  53.2153 242.5592 0001420  93.3736 266.7418 15.08843194 74935
STARLINK-4668           
1 53596U 22104J   23363.82896942  .00011405  00000+0  72941-3 0  9998
2 53596  53.2153 239.2192 0001495 106.6498 253.4659 15.09046721 74022
STARLINK-4682           
1 53597U 22104K   23363.10447299 -.00000357  00000+0 -43147-5 0  9991
2 53597  53.2156 242.5103 0001471 103.5670 256.5486 15.08841414 74604
STARLINK-4676           
1 53598U 22104L   23362.95356863  .00000204  00000+0  30909-4 0  9990
2 53598  53.2159 242.9832 0001586 101.2310 258.8860 15.08840905 74586
STARLINK-4677           
1 53600U 22104N   23363.07086732  .00001168  00000+0  95316-4 0  9996
2 53600  53.2165 242.9973 0001387  84.9746 275.1404 15.07215728 74597
STARLINK-4675           
1 53601U 22104P   23362.96462318  .00000189  00000+0  29944-4 0  9998
2 53601  53.2159 243.0584 0001467  95.2380 264.8779 15.08844193 74583
STARLINK-4648           
1 53602U 22104Q   23363.10309481 -.00000275  00000+0  84672-6 0  9995
2 53602  53.2168 237.5237 0001686  83.3196 276.7988 15.08840491 74674
STARLINK-4692           
1 53603U 22104R   23363.78760448  .00000831  00000+0  70278-4 0  9996
2 53603  53.2144 234.6784 0001564 120.5146 239.6001 15.08839078 74086
STARLINK-4690           
1 53604U 22104S   23363.82437125  .00002806  00000+0  19438-3 0  9999
2 53604  53.2166 234.2052 0001311  99.9437 260.1704 15.08828911 74091
STARLINK-4693           
1 53605U 22104T   23362.95725384 -.00000220  00000+0  42701-5 0  9990
2 53605  53.2168 243.0156 0001556 115.3892 244.7261 15.08841645 74585
STARLINK-4590           
1 53606U 22104U   23363.78253763 -.00000044  00000+0  15314-4 0  9993
2 53606  53.2167 229.6433 0001492  96.4171 263.6991 15.08838983 74155
STARLINK-4591           
1 53607U 22104V   23363.77654518  .00001568  00000+0  11656-3 0  9991
2 53607  53.2164 234.6104 0001452  90.4461 269.6697 15.08846969 74080
STARLINK-4647           
1 53608U 22104W   23363.78990749  .00000563  00000+0  53487-4 0  9995
2 53608  53.2164 229.6963 0001588 105.1850 254.9318 15.08838446 74150
STARLINK-4660           
1 53609U 22104X   23363.80962825  .00002829  00000+0  19574-3 0  9998
2 53609  53.2155 234.1123 0001459  94.7777 265.3382 15.08838700 74091
STARLINK-4610           
1 53610U 22104Y   23363.78349302  .00001075  00000+0  85624-4 0  9998
2 53610  53.2156 229.6488 0001525 104.9034 255.2127 15.08844897 74157
STARLINK-4650           
1 53611U 22104Z   23363.07823760  .00002616  00000+0  16764-3 0  9996
2 53611  53.2154 232.3753 0005919 149.2925 210.8416 15.12027021 74744
STARLINK-4658           
1 53612U 22104AA  23363.05021056  .00001108  00000+0  87671-4 0  9994
2 53612  53.2170 232.8874 0001325 100.1489 259.9653 15.08836969 74617
STARLINK-4655           
1 53613U 22104AB  23363.78622235 -.00000056  00000+0  14579-4 0  9990
2 53613  53.2167 229.6647 0001430  90.0027 270.1129 15.08839451 74159
STARLINK-4605           
1 53616U 22104AE  23362.84870330 -.00001643  00000+0 -85156-4 0  9993
2 53616  53.2149 223.5980 0001510 106.2410 253.8748 15.08842783 74832
STARLINK-4601           
1 53617U 22104AF  23362.84780057 -.00000744  00000+0 -28648-4 0  9994
2 53617  53.2149 233.7621 0001618 119.3949 240.7205 15.08840838 74011
STARLINK-4604           
1 53618U 22104AG  23363.83035508  .00002309  00000+0  16313-3 0  9991
2 53618  53.2149 229.2325 0001359  99.8228 260.2918 15.08836394 74152
STARLINK-4609           
1 53619U 22104AH  23362.84412367  .00000439  00000+0  45696-4 0  9993
2 53619  53.2150 233.7511 0001507  85.2673 274.8491 15.08840669 74012
STARLINK-4615           
1 53620U 22104AJ  23363.82298920  .00000480  00000+0  48262-4 0  9999
2 53620  53.2168 229.1805 0001746  75.3435 284.7751 15.08835581 74161
STARLINK-4608           
1 53621U 22104AK  23363.83404403  .00004223  00000+0  28339-3 0  9997
2 53621  53.2175 229.2579 0001769  80.3113 279.8079 15.08820988 74166
STARLINK-4568           
1 53622U 22104AL  23363.80087668 -.00000079  00000+0  13132-4 0  9997
2 53622  53.2159 229.0546 0001157  89.6981 270.4143 15.08839535 74164
STARLINK-4573           
1 53623U 22104AM  23362.96554957  .00000854  00000+0  71737-4 0  9999
2 53623  53.2166 233.0788 0001561  85.1011 275.0160 15.08841606 74713
STARLINK-4596           
1 53624U 22104AN  23363.81562191  .00005113  00000+0  33908-3 0  9994
2 53624  53.2136 229.1447 0001336  99.3375 260.7768 15.08841988 74166
STARLINK-4603           
1 53625U 22104AP  23363.81930162  .00001192  00000+0  93004-4 0  9999
2 53625  53.2156 229.1667 0001426 100.2315 259.8837 15.08837713 74166
STARLINK-4554           
1 53626U 22104AQ  23362.94343783 -.00000355  00000+0 -42222-5 0  9999
2 53626  53.2162 232.9386 0001391  94.5472 265.5679 15.08841475 74038
STARLINK-4595           
1 53627U 22104AR  23363.81192954  .00001259  00000+0  97184-4 0  9997
2 53627  53.2157 229.1205 0001355 100.2177 259.8968 15.08845939 74168
STARLINK-4600           
1 53628U 22104AS  23363.06854951  .00003408  00000+0  23211-3 0  9994
2 53628  53.2149 232.3015 0001425  75.7607 284.3544 15.08837530 74742
STARLINK-4602           
1 53629U 22104AT  23363.01336502  .00000316  00000+0  37946-4 0  9993
2 53629  53.2160 232.6639 0001485  98.3713 261.7447 15.08840622 74732
STARLINK-4598           
1 53630U 22104AU  23363.77703371  .00002983  00000+0  20537-3 0  9999
2 53630  53.2153 219.6317 0001226  65.6386 294.4734 15.08855069 74294
STARLINK-4599           
1 53631U 22104AV  23363.82025646  .00000982  00000+0  79793-4 0  9994
2 53631  53.2155 229.1662 0001421  85.4828 274.6326 15.08840933 74161
STARLINK-4606           
1 53632U 22104AW  23363.83494655  .00001837  00000+0  13341-3 0  9992
2 53632  53.2161 219.2815 0001432 101.9406 258.1747 15.08850917 74300
STARLINK-4593           
1 53633U 22104AX  23363.83864283  .00000546  00000+0  52418-4 0  9996
2 53633  53.2157 219.3032 0001530 109.0881 251.0277 15.08842978 74301
STARLINK-4592           
1 53634U 22104AY  23362.83398834 -.00001515  00000+0 -77089-4 0  9990
2 53634  53.2166 223.6959 0001532 109.7057 250.4100 15.08840851 75174
STARLINK-4587           
1 53635U 22104AZ  23362.83767388  .00000443  00000+0  45910-4 0  9990
2 53635  53.2150 223.7183 0001440 107.6406 252.4743 15.08841563 75177
STARLINK-4586           
1 53636U 22104BA  23363.82022325  .00000015  00000+0  19018-4 0  9991
2 53636  53.2158 219.1891 0001466  93.6865 266.4294 15.08838299 74304
STARLINK-4396           
1 53637U 22104BB  23362.92698409 -.00000294  00000+0 -35354-6 0  9998
2 53637  53.2151 223.5655 0001423  81.3039 278.8114 15.08837017 75187
STARLINK-4594           
1 53638U 22104BC  23363.80180179  .00000699  00000+0  62001-4 0  9991
2 53638  53.2163 219.0782 0001449  84.4957 275.6200 15.08839341 74309
STARLINK-4422           
1 53639U 22104BD  23363.81653731  .00000626  00000+0  57397-4 0  9994
2 53639  53.2167 219.1620 0001576 102.5726 257.5442 15.08839624 74304
STARLINK-4597           
1 53640U 22104BE  23362.88548631 -.00002218  00000+0 -12132-3 0  9992
2 53640  53.2144 223.3021 0001286 116.7130 243.3993 15.08835582 75187
STARLINK-4588           
1 53641U 22104BF  23363.82390928 -.00000387  00000+0 -62029-5 0  9999
2 53641  53.2163 219.2066 0001554  98.2139 261.9029 15.08842124 74302
STARLINK-4622           
1 53648U 22105A   23363.68341521 -.00005046  00000+0 -38815-3 0  9997
2 53648  97.6560 241.9685 0003487  80.3382 279.8236 15.01296157 73354
STARLINK-4386           
1 53649U 22105B   23363.61492611  .00001014  00000+0  83552-4 0  9996
2 53649  97.6555 241.9013 0004043  85.2837 274.8849 15.01263333 73043
STARLINK-4380           
1 53650U 22105C   23363.61307322  .00002319  00000+0  18503-3 0  9994
2 53650  97.6544 241.9012 0004261  82.6301 277.5407 15.01273699 73047
STARLINK-4388           
1 53651U 22105D   23363.61122416 -.00001911  00000+0 -14415-3 0  9991
2 53651  97.6552 241.9000 0005152  63.2546 296.9205 15.01273190 73328
STARLINK-4374           
1 53652U 22105E   23363.60937718  .00001316  00000+0  10702-3 0  9992
2 53652  97.6545 241.8971 0005614  61.8979 298.2812 15.01263718 73328
STARLINK-4390           
1 53653U 22105F   23363.62788963  .00000676  00000+0  57244-4 0  9992
2 53653  97.6576 241.8566 0001738  83.4301 276.7121 15.01261563 73044
STARLINK-4420           
1 53654U 22105G   23363.60382126  .00002325  00000+0  18546-3 0  9996
2 53654  97.6534 241.8915 0006151  60.3124 299.8712 15.01265963 73048
